NORAD_CAT_ID,OBJECT_NAME,OBJECT_TYPE,EPOCH,MEAN_MOTION,ECCENTRICITY,INCLINATION,RA_OF_ASC_NODE,ARG_OF_PERICENTER,MEAN_ANOMALY,BSTAR,MEAN_MOTION_DOT,MEAN_MOTION_DDOT,TLE_LINE0,TLE_LINE1,TLE_LINE2,SEMIMAJOR_AXIS,PERIOD,APOGEE,PERIGEE,DECAYED
53275.0,STARLINK-4179,PAYLOAD,2023-12-19 21:55:41,15.08838781,0.0001608,53.215,223.842,72.9432,287.1736,-2.1856e-05,-6.36e-06,0.0,0 STARLINK-4179,1 53275U 22086AK  23353.91367522 -.00000636  00000-0 -21856-4 0  9994,2 53275  53.2150 223.8420 0001608  72.9432 287.1736 15.08838781 78797,6917.884,95.438,540.862,538.637,0.0
53275.0,STARLINK-4179,PAYLOAD,2023-12-20 21:46:28,15.08842135,0.0001662,53.2163,219.3774,93.6257,266.4926,0.00020003,2.897e-05,0.0,0 STARLINK-4179,1 53275U 22086AK  23354.90727487  .00002897  00000-0  20003-3 0  9995,2 53275  53.2163 219.3774 0001662  93.6257 266.4926 15.08842135 78944,6917.874,95.437,540.889,538.589,0.0
53275.0,STARLINK-4179,PAYLOAD,2023-12-21 21:37:15,15.08843191,0.0001652,53.2159,214.9156,98.4621,261.6558,0.00012259,1.664e-05,0.0,0 STARLINK-4179,1 53275U 22086AK  23355.90087347  .00001664  00000-0  12259-3 0  9995,2 53275  53.2159 214.9156 0001652  98.4621 261.6558 15.08843191 79099,6917.871,95.437,540.878,538.593,0.0
53275.0,STARLINK-4179,PAYLOAD,2023-12-22 19:52:39,15.08842179,0.0001649,53.2158,210.7532,108.3653,251.7519,1.2496e-05,-8.9e-07,0.0,0 STARLINK-4179,1 53275U 22086AK  23356.82823272 -.00000089  00000-0  12496-4 0  9997,2 53275  53.2158 210.7532 0001649 108.3653 251.7519 15.08842179 79230,6917.874,95.437,540.879,538.598,0.0
53275.0,STARLINK-4179,PAYLOAD,2023-12-23 19:43:26,15.08838383,0.0001465,53.216,206.2937,110.2121,249.9029,-8.1327e-07,-3.01e-06,0.0,0 STARLINK-4179,1 53275U 22086AK  23357.82183918 -.00000301  00000-0 -81327-6 0  9993,2 53275  53.2160 206.2937 0001465 110.2121 249.9029 15.08838383 79215,6917.885,95.438,540.764,538.737,0.0
53275.0,STARLINK-4179,PAYLOAD,2023-12-24 19:34:14,15.08834248,0.0002021,53.2162,201.8335,136.0452,224.0702,9.5026e-05,1.224e-05,0.0,0 STARLINK-4179,1 53275U 22086AK  23358.81544876  .00001224  00000-0  95026-4 0  9999,2 53275  53.2162 201.8335 0002021 136.0452 224.0702 15.08834248 79366,6917.898,95.438,541.161,538.365,0.0
53275.0,STARLINK-4179,PAYLOAD,2023-12-24 21:09:38,15.08833806,0.0001419,53.2154,201.5333,113.5262,246.588,9.2585e-05,1.186e-05,0.0,0 STARLINK-4179,1 53275U 22086AK  23358.88169099  .00001186  00000-0  92585-4 0  9990,2 53275  53.2154 201.5333 0001419 113.5262 246.5880 15.08833806 79546,6917.899,95.438,540.746,538.783,0.0
53275.0,STARLINK-4179,PAYLOAD,2023-12-25 21:00:26,15.08830922,0.0001514,53.2149,197.0737,82.8856,277.2308,0.0007597,0.0001182,0.0,0 STARLINK-4179,1 53275U 22086AK  23359.87530129  .00011820  00000-0  75970-3 0  9990,2 53275  53.2149 197.0737 0001514  82.8856 277.2308 15.08830922 79698,6917.908,95.438,540.821,538.726,0.0
53275.0,STARLINK-4179,PAYLOAD,2023-12-25 22:35:48,15.08843018,0.000149,53.2146,196.7754,84.3968,275.7194,0.00072056,0.00011199,0.0,0 STARLINK-4179,1 53275U 22086AK  23359.94153723  .00011199  00000-0  72056-3 0  9990,2 53275  53.2146 196.7754 0001490  84.3968 275.7194 15.08843018 79533,6917.871,95.437,540.767,538.705,0.0
53275.0,STARLINK-4179,PAYLOAD,2023-12-26 12:54:16,15.08855673,0.0001318,53.2137,194.0997,96.1924,263.9218,0.00039512,6.009e-05,0.0,0 STARLINK-4179,1 53275U 22086AK  23360.53768822  .00006009  00000-0  39512-3 0  9993,2 53275  53.2137 194.0997 0001318  96.1924 263.9218 15.08855673 79799,6917.832,95.437,540.609,538.786,0.0
53275.0,STARLINK-4179,PAYLOAD,2023-12-26 19:15:48,15.08861651,0.0001318,53.2132,192.9112,93.8691,266.2451,0.00045192,6.916e-05,0.0,0 STARLINK-4179,1 53275U 22086AK  23360.80264368  .00006916  00000-0  45192-3 0  9997,2 53275  53.2132 192.9112 0001318  93.8691 266.2451 15.08861651 79838,6917.814,95.436,540.591,538.767,0.0
53275.0,STARLINK-4179,PAYLOAD,2023-12-27 19:06:34,15.0885338,0.0001309,53.2133,188.451,93.3045,266.8097,0.00010405,1.369e-05,0.0,0 STARLINK-4179,1 53275U 22086AK  23361.79623774  .00001369  00000-0  10405-3 0  9992,2 53275  53.2133 188.4510 0001309  93.3045 266.8097 15.08853380 79819,6917.839,95.437,540.61,538.799,0.0
53275.0,STARLINK-4179,PAYLOAD,2023-12-28 12:35:49,15.08844961,0.0001545,53.213,185.1822,65.5853,294.5301,-1.0151e-05,-4.5e-06,0.0,0 STARLINK-4179,1 53275U 22086AK  23362.52487903 -.00000450  00000-0 -10151-4 0  9997,2 53275  53.2130 185.1822 0001545  65.5853 294.5301 15.08844961 79929,6917.865,95.437,540.799,538.661,0.0
53275.0,STARLINK-4179,PAYLOAD,2023-12-28 17:21:59,15.08844937,0.0001316,53.2151,184.2871,97.4198,262.6944,-4.2331e-05,-9.62e-06,0.0,0 STARLINK-4179,1 53275U 22086AK  23362.72360043 -.00000962  00000-0 -42331-4 0  9997,2 53275  53.2151 184.2871 0001316  97.4198 262.6944 15.08844937 80124,6917.865,95.437,540.641,538.82,0.0
53275.0,STARLINK-4179,PAYLOAD,2023-12-29 18:48:09,15.08839439,0.0001373,53.2158,179.527,98.8492,261.2656,5.6239e-05,6.07e-06,0.0,0 STARLINK-4179,1 53275U 22086AK  23363.78343820  .00000607  00000-0  56239-4 0  9994,2 53275  53.2158 179.5270 0001373  98.8492 261.2656 15.08839439 80111,6917.882,95.438,540.697,538.797,0.0
53275.0,STARLINK-4179,PAYLOAD,2023-12-30 12:17:23,15.08837044,0.0001351,53.2159,176.256,97.6931,262.4215,6.0312e-05,6.72e-06,0.0,0 STARLINK-4179,1 53275U 22086AK  23364.51208067  .00000672  00000-0  60312-4 0  9998,2 53275  53.2159 176.2560 0001351  97.6931 262.4215 15.08837044 80393,6917.889,95.438,540.689,538.82,0.0
53275.0,STARLINK-4179,PAYLOAD,2023-12-30 18:38:56,15.08838592,0.0001316,53.216,175.0665,95.2905,264.8237,6.4695e-05,7.42e-06,0.0,0 STARLINK-4179,1 53275U 22086AK  23364.77703998  .00000742  00000-0  64695-4 0  9995,2 53275  53.2160 175.0665 0001316  95.2905 264.8237 15.08838592 80438,6917.885,95.438,540.66,538.839,0.0
53275.0,STARLINK-4179,PAYLOAD,2023-12-31 16:54:20,15.08837574,0.0001299,53.2162,170.903,94.7716,265.3425,4.1883e-05,3.79e-06,0.0,0 STARLINK-4179,1 53275U 22086AK  23365.70440280  .00000379  00000-0  41883-4 0  9991,2 53275  53.2162 170.9030 0001299  94.7716 265.3425 15.08837574 80405,6917.888,95.438,540.651,538.854,0.0
53275.0,STARLINK-4179,PAYLOAD,2023-12-31 21:40:29,15.08836796,0.0001292,53.2161,170.0112,93.6067,266.5073,3.0826e-05,2.03e-06,0.0,0 STARLINK-4179,1 53275U 22086AK  23365.90312364  .00000203  00000-0  30826-4 0  9995,2 53275  53.2161 170.0112 0001292  93.6067 266.5073 15.08836796 80605,6917.89,95.438,540.649,538.861,0.0
53275.0,STARLINK-4179,PAYLOAD,2024-01-01 19:55:53,15.08840846,0.0001237,53.2163,165.8482,89.4001,270.7133,5.6869e-05,6.17e-06,0.0,0 STARLINK-4179,1 53275U 22086AK  24001.83048187  .00000617  00000-0  56869-4 0  9998,2 53275  53.2163 165.8482 0001237  89.4001 270.7133 15.08840846 80570,6917.878,95.438,540.599,538.887,0.0
53275.0,STARLINK-4179,PAYLOAD,2024-01-02 18:11:17,15.08840807,0.0001299,53.2166,161.6851,85.7048,274.4093,7.049e-05,8.34e-06,0.0,0 STARLINK-4179,1 53275U 22086AK  24002.75784317  .00000834  00000-0  70490-4 0  9999,2 53275  53.2166 161.6851 0001299  85.7048 274.4093 15.08840807 80882,6917.878,95.438,540.642,538.844,0.0
53275.0,STARLINK-4179,PAYLOAD,2024-01-03 10:05:09,15.08838322,0.0001428,53.217,158.7136,80.8006,279.3147,5.0024e-05,5.08e-06,0.0,0 STARLINK-4179,1 53275U 22086AK  24003.42024630  .00000508  00000-0  50024-4 0  9998,2 53275  53.2170 158.7136 0001428  80.8006 279.3147 15.08838322 80810,6917.886,95.438,540.738,538.763,0.0
53275.0,STARLINK-4179,PAYLOAD,2024-01-03 16:26:41,15.08840349,0.0001405,53.2168,157.5242,81.3982,278.717,4.0285e-05,3.53e-06,0.0,0 STARLINK-4179,1 53275U 22086AK  24003.68520532  .00000353  00000-0  40285-4 0  9994,2 53275  53.2168 157.5242 0001405  81.3982 278.7170 15.08840349 81021,6917.879,95.438,540.716,538.772,0.0
53275.0,STARLINK-4179,PAYLOAD,2024-01-04 14:42:05,15.08840399,0.0001297,53.2164,153.3609,88.8277,271.2864,3.038e-05,1.96e-06,0.0,0 STARLINK-4179,1 53275U 22086AK  24004.61256513  .00000196  00000-0  30380-4 0  9993,2 53275  53.2164 153.3609 0001297  88.8277 271.2864 15.08840399 81164,6917.879,95.438,540.641,538.847,0.0
53275.0,STARLINK-4179,PAYLOAD,2024-01-04 16:17:28,15.08841373,0.0001317,53.2166,153.0637,87.5646,272.5497,3.7413e-05,3.08e-06,0.0,0 STARLINK-4179,1 53275U 22086AK  24004.67880434  .00000308  00000-0  37413-4 0  9993,2 53275  53.2166 153.0637 0001317  87.5646 272.5497 15.08841373 81005,6917.876,95.437,540.652,538.83,0.0
53275.0,STARLINK-4179,PAYLOAD,2024-01-05 14:32:52,15.08839233,0.0001402,53.2174,148.9004,91.8133,268.302,3.408e-05,2.54e-06,0.0,0 STARLINK-4179,1 53275U 22086AK  24005.60616639  .00000254  00000-0  34080-4 0  9998,2 53275  53.2174 148.9004 0001402  91.8133 268.3020 15.08839233 81310,6917.883,95.438,540.718,538.778,0.0
53275.0,STARLINK-4179,PAYLOAD,2024-01-05 16:08:15,15.08840045,0.0001415,53.2175,148.603,91.9086,268.2068,3.842e-05,3.24e-06,0.0,0 STARLINK-4179,1 53275U 22086AK  24005.67240575  .00000324  00000-0  38420-4 0  9997,2 53275  53.2175 148.6030 0001415  91.9086 268.2068 15.08840045 81324,6917.88,95.438,540.724,538.766,0.0
53275.0,STARLINK-4179,PAYLOAD,2024-01-06 12:48:16,15.08837795,0.0001448,53.218,144.7378,95.0958,265.0199,3.5584e-05,2.78e-06,0.0,0 STARLINK-4179,1 53275U 22086AK  24006.53352768  .00000278  00000-0  35584-4 0  9997,2 53275  53.2180 144.7378 0001448  95.0958 265.0199 15.08837795 81284,6917.887,95.438,540.754,538.75,0.0
53275.0,STARLINK-4179,PAYLOAD,2024-01-06 19:09:49,15.08841695,0.0001423,53.2175,143.5457,90.3763,269.7392,7.0462e-05,8.34e-06,0.0,0 STARLINK-4179,1 53275U 22086AK  24006.79848421  .00000834  00000-0  70462-4 0  9993,2 53275  53.2175 143.5457 0001423  90.3763 269.7392 15.08841695 81491,6917.875,95.437,540.725,538.756,0.0
53275.0,STARLINK-4179,PAYLOAD,2024-01-07 09:28:18,15.08834559,0.0001456,53.2174,140.8672,88.6926,271.4233,-1.7302e-05,-5.63e-06,0.0,0 STARLINK-4179,1 53275U 22086AK  24007.39465326 -.00000563  00000-0 -17302-4 0  9994,2 53275  53.2174 140.8672 0001456  88.6926 271.4233 15.08834559 81413,6917.897,95.438,540.769,538.755,0.0
